NORAD_CAT_ID,OBJECT_NAME,OBJECT_TYPE,EPOCH,MEAN_MOTION,ECCENTRICITY,INCLINATION,RA_OF_ASC_NODE,ARG_OF_PERICENTER,MEAN_ANOMALY,BSTAR,MEAN_MOTION_DOT,MEAN_MOTION_DDOT,TLE_LINE0,TLE_LINE1,TLE_LINE2,SEMIMAJOR_AXIS,PERIOD,APOGEE,PERIGEE,DECAYED
53136.0,STARLINK-4152,PAYLOAD,2024-04-06 22:20:41,15.08836164,0.0001395,53.2164,84.4358,87.8888,272.2264,3.4792e-05,2.66e-06,0.0,0 STARLINK-4152,1 53136U 22083E   24097.93103052  .00000266  00000-0  34792-4 0  9991,2 53136  53.2164  84.4358 0001395  87.8888 272.2264 15.08836164 96268,6917.892,95.438,540.722,538.792,0.0
53136.0,STARLINK-4152,PAYLOAD,2024-04-07 07:52:59,15.08839873,0.0001435,53.2169,82.6519,88.5319,271.5837,3.0065e-05,1.91e-06,0.0,0 STARLINK-4152,1 53136U 22083E   24098.32846937  .00000191  00000-0  30065-4 0  9997,2 53136  53.2169  82.6519 0001435  88.5319 271.5837 15.08839873 95968,6917.881,95.438,540.738,538.753,0.0
53136.0,STARLINK-4152,PAYLOAD,2024-04-08 07:43:46,15.08838981,0.0001407,53.2171,78.1916,96.5324,263.5828,7.7483e-05,9.45e-06,0.0,0 STARLINK-4152,1 53136U 22083E   24099.32207075  .00000945  00000-0  77483-4 0  9994,2 53136  53.2171  78.1916 0001407  96.5324 263.5828 15.08838981 96473,6917.884,95.438,540.722,538.775,0.0
53136.0,STARLINK-4152,PAYLOAD,2024-04-08 15:40:42,15.08838215,0.000138,53.2168,76.7041,89.2098,270.9052,6.8921e-05,8.09e-06,0.0,0 STARLINK-4152,1 53136U 22083E   24099.65327229  .00000809  00000-0  68921-4 0  9990,2 53136  53.2168  76.7041 0001380  89.2098 270.9052 15.08838215 96166,6917.886,95.438,540.706,538.796,0.0
53136.0,STARLINK-4152,PAYLOAD,2024-04-09 05:59:10,15.0884438,0.0001402,53.2171,74.0279,88.2742,271.841,9.3914e-05,1.207e-05,0.0,0 STARLINK-4152,1 53136U 22083E   24100.24942808  .00001207  00000-0  93914-4 0  9997,2 53136  53.2171  74.0279 0001402  88.2742 271.8410 15.08844380 96612,6917.867,95.437,540.702,538.762,0.0
53136.0,STARLINK-4152,PAYLOAD,2024-04-09 21:53:02,15.08839159,0.0001457,53.2182,71.0531,86.821,273.2949,3.078e-05,2.02e-06,0.0,0 STARLINK-4152,1 53136U 22083E   24100.91183390  .00000202  00000-0  30780-4 0  9990,2 53136  53.2182  71.0531 0001457  86.8210 273.2949 15.08839159 96718,6917.883,95.438,540.756,538.74,0.0
53136.0,STARLINK-4152,PAYLOAD,2024-04-10 04:14:34,15.08840024,0.0001432,53.2171,69.8632,89.3913,270.7243,3.9443e-05,3.4e-06,0.0,0 STARLINK-4152,1 53136U 22083E   24101.17679302  .00000340  00000-0  39443-4 0  9990,2 53136  53.2171  69.8632 0001432  89.3913 270.7243 15.08840024 96390,6917.88,95.438,540.736,538.755,0.0
53136.0,STARLINK-4152,PAYLOAD,2024-04-10 07:25:21,15.08841159,0.0001463,53.2171,69.2685,88.9753,271.1407,5.3409e-05,5.62e-06,0.0,0 STARLINK-4152,1 53136U 22083E   24101.30927201  .00000562  00000-0  53409-4 0  9993,2 53136  53.2171  69.2685 0001463  88.9753 271.1407 15.08841159 96772,6917.877,95.437,540.754,538.73,0.0
53136.0,STARLINK-4152,PAYLOAD,2024-04-10 15:22:16,15.0884116,0.0001461,53.2172,67.7817,88.6924,271.4236,4.951e-05,5e-06,0.0,0 STARLINK-4152,1 53136U 22083E   24101.64047181  .00000500  00000-0  49510-4 0  9990,2 53136  53.2172  67.7817 0001461  88.6924 271.4236 15.08841160 96829,6917.877,95.437,540.753,538.731,0.0
53136.0,STARLINK-4152,PAYLOAD,2024-04-11 07:16:07,15.08852568,0.0001542,53.2179,64.8062,94.8508,265.266,-5.1662e-05,-1.11e-05,0.0,0 STARLINK-4152,1 53136U 22083E   24102.30286676 -.00001110  00000-0 -51662-4 0  9999,2 53136  53.2179  64.8062 0001542  94.8508 265.2660 15.08852568 96560,6917.842,95.437,540.774,538.64,0.0
53136.0,STARLINK-4152,PAYLOAD,2024-04-12 03:56:09,15.08837216,0.000149,53.2182,60.9398,98.3386,261.7775,1.9646e-05,2.5e-07,0.0,0 STARLINK-4152,1 53136U 22083E   24103.16399516  .00000025  00000-0  19646-4 0  9990,2 53136  53.2182  60.9398 0001490  98.3386 261.7775 15.08837216 96693,6917.889,95.438,540.785,538.723,0.0
53136.0,STARLINK-4152,PAYLOAD,2024-04-12 07:06:55,15.08837802,0.000149,53.2183,60.345,98.4054,261.7107,2.2445e-05,6.9e-07,0.0,0 STARLINK-4152,1 53136U 22083E   24103.29647480  .00000069  00000-0  22445-4 0  9999,2 53136  53.2183  60.3450 0001490  98.4054 261.7107 15.08837802 97073,6917.887,95.438,540.783,538.721,0.0
53136.0,STARLINK-4152,PAYLOAD,2024-04-13 03:46:56,15.0883902,0.0001418,53.2184,56.478,100.1264,259.9888,3.523e-05,2.73e-06,0.0,0 STARLINK-4152,1 53136U 22083E   24104.15759471  .00000273  00000-0  35230-4 0  9992,2 53136  53.2184  56.4780 0001418 100.1264 259.9888 15.08839020 97204,6917.883,95.438,540.729,538.767,0.0
53136.0,STARLINK-4152,PAYLOAD,2024-04-14 03:37:42,15.08848221,0.0001204,53.2178,52.0216,104.287,255.8256,8.9043e-05,1.13e-05,0.0,0 STARLINK-4152,1 53136U 22083E   24105.15118996  .00001130  00000-0  89043-4 0  9998,2 53136  53.2178  52.0216 0001204 104.2870 255.8256 15.08848221 96996,6917.855,95.437,540.553,538.887,0.0
53136.0,STARLINK-4152,PAYLOAD,2024-04-14 08:23:51,15.08856302,0.0001175,53.2177,51.1299,106.2853,253.8269,0.00016311,2.31e-05,0.0,0 STARLINK-4152,1 53136U 22083E   24105.34990273  .00002310  00000-0  16311-3 0  9993,2 53136  53.2177  51.1299 0001175 106.2853 253.8269 15.08856302 97022,6917.831,95.437,540.508,538.883,0.0
53136.0,STARLINK-4152,PAYLOAD,2024-04-14 19:31:35,15.08832091,0.0001365,53.2178,49.0483,110.4597,249.6541,5.569e-05,5.98e-06,0.0,0 STARLINK-4152,1 53136U 22083E   24105.81360387  .00000598  00000-0  55690-4 0  9992,2 53136  53.2178  49.0483 0001365 110.4597 249.6541 15.08832091 97099,6917.905,95.438,540.714,538.825,0.0
53136.0,STARLINK-4152,PAYLOAD,2024-04-14 21:06:57,15.08837013,0.0001294,53.217,48.7515,102.6052,257.5085,1.9448e-06,-2.57e-06,0.0,0 STARLINK-4152,1 53136U 22083E   24105.87983776 -.00000257  00000-0  19448-5 0  9996,2 53136  53.2170  48.7515 0001294 102.6052 257.5085 15.08837013 97464,6917.89,95.438,540.65,538.859,0.0
53136.0,STARLINK-4152,PAYLOAD,2024-04-15 03:28:30,15.08848616,0.0001259,53.2172,47.5623,97.8754,262.2381,0.0001997,2.892e-05,0.0,0 STARLINK-4152,1 53136U 22083E   24106.14479289  .00002892  00000-0  19970-3 0  9990,2 53136  53.2172  47.5623 0001259  97.8754 262.2381 15.08848616 97146,6917.854,95.437,540.59,538.848,0.0
53136.0,STARLINK-4152,PAYLOAD,2024-04-15 08:14:39,15.0886323,0.0001257,53.2168,46.6702,101.1713,258.9421,0.00062377,9.66e-05,0.0,0 STARLINK-4152,1 53136U 22083E   24106.34350904  .00009660  00000-0  62377-3 0  9993,2 53136  53.2168  46.6702 0001257 101.1713 258.9421 15.08863230 97170,6917.809,95.436,540.544,538.805,0.0
53136.0,STARLINK-4152,PAYLOAD,2024-04-15 14:36:12,15.08838722,0.0001291,53.2166,45.4807,110.8239,249.2891,0.00023897,3.517e-05,0.0,0 STARLINK-4152,1 53136U 22083E   24106.60847501  .00003517  00000-0  23897-3 0  9995,2 53136  53.2166  45.4807 0001291 110.8239 249.2891 15.08838722 97575,6917.884,95.438,540.642,538.856,0.0
53136.0,STARLINK-4152,PAYLOAD,2024-04-15 20:57:44,15.08843747,0.0001262,53.2165,44.2915,94.2256,265.888,0.00067006,0.00010393,0.0,0 STARLINK-4152,1 53136U 22083E   24106.87343725  .00010393  00000-0  67006-3 0  9993,2 53136  53.2165  44.2915 0001262  94.2256 265.8880 15.08843747 97253,6917.869,95.437,540.607,538.861,0.0
53136.0,STARLINK-4152,PAYLOAD,2024-04-16 12:51:36,15.08862745,0.0001539,53.2164,41.3178,74.5527,285.5635,0.0020055,0.00031794,0.0,0 STARLINK-4152,1 53136U 22083E   24107.53583651  .00031794  00000-0  20055-2 0  9991,2 53136  53.2164  41.3178 0001539  74.5527 285.5635 15.08862745 97717,6917.811,95.436,540.741,538.611,0.0
53136.0,STARLINK-4152,PAYLOAD,2024-04-17 04:45:26,15.08874682,0.0001686,53.2167,38.3443,72.5961,287.5215,0.0013181,0.00020772,0.0,0 STARLINK-4152,1 53136U 22083E   24108.19822695  .00020772  00000-0  13181-2 0  9994,2 53136  53.2167  38.3443 0001686  72.5961 287.5215 15.08874682 97454,6917.774,95.435,540.806,538.473,0.0
53136.0,STARLINK-4152,PAYLOAD,2024-04-18 01:25:28,15.08839951,0.0001299,53.2166,34.4782,102.1664,257.9474,0.00052326,8.05e-05,0.0,0 STARLINK-4152,1 53136U 22083E   24109.05935773  .00008050  00000-0  52326-3 0  9992,2 53136  53.2166  34.4782 0001299 102.1664 257.9474 15.08839951 97588,6917.881,95.438,540.644,538.847,0.0
53136.0,STARLINK-4152,PAYLOAD,2024-04-18 06:11:38,15.08838911,0.0001381,53.2169,33.5861,69.3648,290.7492,0.0018058,0.00028567,0.0,0 STARLINK-4152,1 53136U 22083E   24109.25808320  .00028567  00000-0  18058-2 0  9999,2 53136  53.2169  33.5861 0001381  69.3648 290.7492 15.08838911 97970,6917.884,95.438,540.704,538.793,0.0
53136.0,STARLINK-4152,PAYLOAD,2024-04-18 22:05:30,15.08841419,0.0002029,53.2172,30.6096,114.1263,245.9941,0.0027281,0.000434,0.0,0 STARLINK-4152,1 53136U 22083E   24109.92048986  .00043400  00000-0  27281-2 0  9998,2 53136  53.2172  30.6096 0002029 114.1263 245.9941 15.08841419 98074,6917.876,95.437,541.145,538.337,0.0
53136.0,STARLINK-4152,PAYLOAD,2024-04-19 04:27:02,15.08870283,0.0001523,53.2177,29.4219,101.1232,258.9931,0.0026522,0.0004221,0.0,0 STARLINK-4152,1 53136U 22083E   24110.18544582  .00042210  00000-0  26522-2 0  9996,2 53136  53.2177  29.4219 0001523 101.1232 258.9931 15.08870283 97750,6917.788,95.436,540.706,538.599,0.0
53136.0,STARLINK-4152,PAYLOAD,2024-04-19 21:56:16,15.08886311,0.0002434,53.2186,26.1393,128.7089,231.4121,0.0029423,0.00046911,0.0,0 STARLINK-4152,1 53136U 22083E   24110.91408055  .00046911  00000-0  29423-2 0  9996,2 53136  53.2186  26.1393 0002434 128.7089 231.4121 15.08886311 98223,6917.739,95.435,541.288,537.92,0.0
53136.0,STARLINK-4152,PAYLOAD,2024-04-20 04:17:48,15.08884471,0.0001814,53.2191,24.9526,101.3033,258.8163,0.0016367,0.00025888,0.0,0 STARLINK-4152,1 53136U 22083E   24111.17903608  .00025888  00000-0  16367-2 0  9992,2 53136  53.2191  24.9526 0001814 101.3033 258.8163 15.08884471 97908,6917.744,95.435,540.864,538.355,0.0
53136.0,STARLINK-4152,PAYLOAD,2024-04-20 18:36:17,15.0882382,0.000179,53.2186,22.2848,120.9261,239.1907,0.00069352,0.00010762,0.0,0 STARLINK-4152,1 53136U 22083E   24111.77520412  .00010762  00000-0  69352-3 0  9994,2 53136  53.2186  22.2848 0001790 120.9261 239.1907 15.08823820 97991,6917.93,95.439,541.033,538.557,0.0
